{
    "links": {
        "self": "http://www.neowsapp.com/rest/v1/neo/3402202?api_key=iIulBulltgU6a56xZRHN4H3l9WmuAYTsLGpBGhQ2"
    },
    "id": "3402202",
    "neo_reference_id": "3402202",
    "name": "(2008 CC22)",
    "designation": "2008 CC22",
    "nasa_jpl_url": "http://ssd.jpl.nasa.gov/sbdb.cgi?sstr=3402202",
    "absolute_magnitude_h": 24.0,
    "estimated_diameter": {
        "kilometers": {
            "estimated_diameter_min": 0.0421264611,
            "estimated_diameter_max": 0.0941976306
        },
        "meters": {
            "estimated_diameter_min": 42.1264610556,
            "estimated_diameter_max": 94.1976305719
        },
        "miles": {
            "estimated_diameter_min": 0.0261761612,
            "estimated_diameter_max": 0.0585316759
        },
        "feet": {
            "estimated_diameter_min": 138.2101784897,
            "estimated_diameter_max": 309.0473542854
        }
    },
    "is_potentially_hazardous_asteroid": false,
    "close_approach_data": [
        {
            "close_approach_date": "2008-02-29",
            "close_approach_date_full": "2008-Feb-29 12:21",
            "epoch_date_close_approach": 1204287660000,
            "relative_velocity": {
                "kilometers_per_second": "13.9227236927",
                "kilometers_per_hour": "50121.8052936044",
                "miles_per_hour": "31143.7406281288"
            },
            "miss_distance": {
                "astronomical": "0.0303072351",
                "lunar": "11.7895144539",
                "kilometers": "4533897.816549237",
                "miles": "2817233.4663519906"
            },
            "orbiting_body": "Earth"
        },
        {
            "close_approach_date": "2082-02-03",
            "close_approach_date_full": "2082-Feb-03 13:33",
            "epoch_date_close_approach": 3537351180000,
            "relative_velocity": {
                "kilometers_per_second": "27.1787745982",
                "kilometers_per_hour": "97843.5885533908",
                "miles_per_hour": "60796.2008986333"
            },
            "miss_distance": {
                "astronomical": "0.4674000082",
                "lunar": "181.8186031898",
                "kilometers": "69922045.664702534",
                "miles": "43447544.4866376092"
            },
            "orbiting_body": "Earth"
        }
    ],
    "orbital_data": {
        "orbit_id": "9",
        "orbit_determination_date": "2017-04-06 09:04:27",
        "first_observation_date": "2008-02-08",
        "last_observation_date": "2008-02-24",
        "data_arc_in_days": 16,
        "observations_used": 24,
        "orbit_uncertainty": "8",
        "minimum_orbit_intersection": ".01968",
        "jupiter_tisserand_invariant": "3.664",
        "epoch_osculation": "2454507.5",
        "eccentricity": ".5667157244875406",
        "semi_major_axis": "1.959061748798301",
        "inclination": "4.413044982814069",
        "ascending_node_longitude": "327.8293778081372",
        "orbital_period": "1001.54533942149",
        "perihelion_distance": ".8488306505122435",
        "perihelion_argument": "248.2242104411338",
        "aphelion_distance": "3.069292847084358",
        "perihelion_time": "2454564.804416113673",
        "mean_anomaly": "339.4022407284744",
        "mean_motion": ".3594445361883888",
        "equinox": "J2000",
        "orbit_class": {
            "orbit_class_type": "APO",
            "orbit_class_description": "Near-Earth asteroid orbits which cross the Earth’s orbit similar to that of 1862 Apollo",
            "orbit_class_range": "a (semi-major axis) > 1.0 AU; q (perihelion) < 1.017 AU"
        }
    },
    "is_sentry_object": false
}